start=new Date('2022-12-09T00:00:00.000Z').valueOf();
sats=[{"COUNTRY_CODE":"US","SEMIMAJOR_AXIS":"6925.099","INCLINATION":"53.0542","MEAN_ELEMENT_THEORY":"SGP4","RA_OF_ASC_NODE":"130.2554","PERIOD":"95.587","CENTER_NAME":"EARTH","LAUNCH_DATE":"2021-03-04","EPHEMERIS_TYPE":"0","NORAD_CAT_ID":"47728","OBJECT_TYPE":"PAYLOAD","PERIAPSIS":"546.333","EPOCH":"2022-12-08T16:37:42.205440","MEAN_ANOMALY":"309.7717","MEAN_MOTION_DOT":"-0.00016478","REF_FRAME":"TEME","GP_ID":"219806804","FILE":"3684925","ELEMENT_SET_NO":"999","ECCENTRICITY":"0.00009120","OBJECT_NAME":"STARLINK-2131","OBJECT_ID":"2021-017G","MEAN_MOTION_DDOT":"0.0000000000000","SITE":"AFETR","BSTAR":"-0.00108750000000","TLE_LINE2":"2 47728  53.0542 130.2554 0000912  50.3353 309.7717 15.06481314 99016","RCS_SIZE":"LARGE","APOAPSIS":"547.596","ARG_OF_PERICENTER":"50.3353","TIME_SYSTEM":"UTC","REV_AT_EPOCH":"9901","CLASSIFICATION_TYPE":"U","DECAY_DATE":null,"MEAN_MOTION":"15.06481314","TLE_LINE1":"1 47728U 21017G   22342.69284960 -.00016478  00000-0 -10875-2 0  9997"},{"CENTER_NAME":"EARTH","RA_OF_ASC_NODE":"75.0391","PERIOD":"95.590","MEAN_ELEMENT_THEORY":"SGP4","INCLINATION":"53.0548","SEMIMAJOR_AXIS":"6925.260","COUNTRY_CODE":"US","MEAN_ANOMALY":"292.0792","PERIAPSIS":"545.889","EPOCH":"2022-12-08T18:55:07.142304","NORAD_CAT_ID":"47729","OBJECT_TYPE":"PAYLOAD","EPHEMERIS_TYPE":"0","LAUNCH_DATE":"2021-03-04","REF_FRAME":"TEME","MEAN_MOTION_DOT":"0.00017876","GP_ID":"219807555","OBJECT_NAME":"STARLINK-2132","ECCENTRICITY":"0.00017850","ELEMENT_SET_NO":"999","FILE":"3684925","SITE":"AFETR","MEAN_MOTION_DDOT":"0.0000000000000","OBJECT_ID":"2021-017H","TIME_SYSTEM":"UTC","ARG_OF_PERICENTER":"68.0387","APOAPSIS":"548.362","RCS_SIZE":"LARGE","TLE_LINE2":"2 47729  53.0548  75.0391 0001785  68.0387 292.0792 15.06428772 99735","BSTAR":"0.00121500000000","TLE_LINE1":"1 47729U 21017H   22342.78827711  .00017876  00000-0  12150-2 0  9994","MEAN_MOTION":"15.06428772","DECAY_DATE":null,"CLASSIFICATION_TYPE":"U","REV_AT_EPOCH":"9973"},{"OBJECT_ID":"2021-017J","MEAN_MOTION_DDOT":"0.0000000000000","SITE":"AFETR","FILE":"3684925","ELEMENT_SET_NO":"999","ECCENTRICITY":"0.00013660","OBJECT_NAME":"STARLINK-2140","REV_AT_EPOCH":"9875","MEAN_MOTION":"15.06398577","DECAY_DATE":null,"CLASSIFICATION_TYPE":"U","TLE_LINE1":"1 47730U 21017J   22342.71545989  .00001287  00000-0  10531-3 0  9994","BSTAR":"0.00010531000000","RCS_SIZE":"LARGE","TLE_LINE2":"2 47730  53.0540 145.1616 0001366 330.8594  29.2318 15.06398577 98757","APOAPSIS":"548.164","ARG_OF_PERICENTER":"330.8594","TIME_SYSTEM":"UTC","LAUNCH_DATE":"2021-03-04","EPHEMERIS_TYPE":"0","NORAD_CAT_ID":"47730","OBJECT_TYPE":"PAYLOAD","PERIAPSIS":"546.272","MEAN_ANOMALY":"29.2318","EPOCH":"2022-12-08T17:10:15.734496","COUNTRY_CODE":"US","SEMIMAJOR_AXIS":"6925.353","INCLINATION":"53.0540","MEAN_ELEMENT_THEORY":"SGP4","RA_OF_ASC_NODE":"145.1616","PERIOD":"95.592","CENTER_NAME":"EARTH","GP_ID":"219807806","MEAN_MOTION_DOT":"0.00001287","REF_FRAME":"TEME"},{"GP_ID":"219808557","MEAN_MOTION_DOT":"0.00000859","REF_FRAME":"TEME","OBJECT_TYPE":"PAYLOAD","NORAD_CAT_ID":"47731","EPHEMERIS_TYPE":"0","LAUNCH_DATE":"2021-03-04","PERIAPSIS":"546.065","MEAN_ANOMALY":"289.3165","EPOCH":"2022-12-08T17:18:52.830720","RA_OF_ASC_NODE":"140.1394","PERIOD":"95.592","MEAN_ELEMENT_THEORY":"SGP4","INCLINATION":"53.0553","SEMIMAJOR_AXIS":"6925.324","COUNTRY_CODE":"US","CENTER_NAME":"EARTH","DECAY_DATE":null,"MEAN_MOTION":"15.06407863","CLASSIFICATION_TYPE":"U","REV_AT_EPOCH":"9883","TLE_LINE1":"1 47731U 21017K   22342.72144480  .00000859  00000-0  76562-4 0  9998","TLE_LINE2":"2 47731  53.0553 140.1394 0001623  70.7999 289.3165 15.06407863 98832","RCS_SIZE":"LARGE","BSTAR":"0.00007656200000","TIME_SYSTEM":"UTC","ARG_OF_PERICENTER":"70.7999","APOAPSIS":"548.313","MEAN_MOTION_DDOT":"0.0000000000000","OBJECT_ID":"2021-017K","SITE":"AFETR","FILE":"3684925","OBJECT_NAME":"STARLINK-2141","ECCENTRICITY":"0.00016230","ELEMENT_SET_NO":"999"},{"MEAN_ANOMALY":"301.7010","PERIAPSIS":"546.055","EPOCH":"2022-12-08T16:39:46.641312","OBJECT_TYPE":"PAYLOAD","NORAD_CAT_ID":"47732","EPHEMERIS_TYPE":"0","LAUNCH_DATE":"2021-03-04","CENTER_NAME":"EARTH","PERIOD":"95.591","RA_OF_ASC_NODE":"55.5013","MEAN_ELEMENT_THEORY":"SGP4","INCLINATION":"53.0557","SEMIMAJOR_AXIS":"6925.309","COUNTRY_CODE":"US","GP_ID":"219807305","REF_FRAME":"TEME","MEAN_MOTION_DOT":"0.00007361","SITE":"AFETR","MEAN_MOTION_DDOT":"0.0000000000000","OBJECT_ID":"2021-017L","OBJECT_NAME":"STARLINK-2142","ECCENTRICITY":"0.00016150","ELEMENT_SET_NO":"999","FILE":"3684925","TLE_LINE1":"1 47732U 21017L   22342.69428983  .00007361  00000-0  51234-3 0  9991","DECAY_DATE":null,"CLASSIFICATION_TYPE":"U","MEAN_MOTION":"15.06412955","REV_AT_EPOCH":"10001","TIME_SYSTEM":"UTC","ARG_OF_PERICENTER":"58.4137","APOAPSIS":"548.292","TLE_LINE2":"2 47732  53.0557  55.5013 0001615  58.4137 301.7010 15.06412955100012","RCS_SIZE":"LARGE","BSTAR":"0.00051234000000"},{"TLE_LINE1":"1 47733U 21017M   22342.77581334 -.00000426  00000-0 -97261-5 0  9990","MEAN_MOTION":"15.06393372","DECAY_DATE":null,"CLASSIFICATION_TYPE":"U","REV_AT_EPOCH":"9874","TIME_SYSTEM":"UTC","ARG_OF_PERICENTER":"72.5438","APOAPSIS":"548.224","TLE_LINE2":"2 47733  53.0543 149.8900 0001430  72.5438 287.5707 15.06393372 98747","RCS_SIZE":"LARGE","BSTAR":"-0.00000972610000","SITE":"AFETR","MEAN_MOTION_DDOT":"0.0000000000000","OBJECT_ID":"2021-017M","OBJECT_NAME":"STARLINK-2143","ECCENTRICITY":"0.00014300","ELEMENT_SET_NO":"999","FILE":"3684925","GP_ID":"219807055","REF_FRAME":"TEME","MEAN_MOTION_DOT":"-0.00000426","PERIAPSIS":"546.244","MEAN_ANOMALY":"287.5707","EPOCH":"2022-12-08T18:37:10.272576","NORAD_CAT_ID":"47733","OBJECT_TYPE":"PAYLOAD","EPHEMERIS_TYPE":"0","LAUNCH_DATE":"2021-03-04","CENTER_NAME":"EARTH","RA_OF_ASC_NODE":"149.8900","PERIOD":"95.593","MEAN_ELEMENT_THEORY":"SGP4","INCLINATION":"53.0543","SEMIMAJOR_AXIS":"6925.369","COUNTRY_CODE":"US"},{"REV_AT_EPOCH":"9884","DECAY_DATE":null,"CLASSIFICATION_TYPE":"U","MEAN_MOTION":"15.06403154","TLE_LINE1":"1 47734U 21017N   22342.72882091  .00001695  00000-0  13267-3 0  9999","BSTAR":"0.00013267000000","RCS_SIZE":"LARGE","TLE_LINE2":"2 47734  53.0548 140.1031 0001339  79.5849 280.5291 15.06403154 98845","APOAPSIS":"548.131","ARG_OF_PERICENTER":"79.5849","TIME_SYSTEM":"UTC","OBJECT_ID":"2021-017N","MEAN_MOTION_DDOT":"0.0000000000000","SITE":"AFETR","FILE":"3684925","ELEMENT_SET_NO":"999","ECCENTRICITY":"0.00013390","OBJECT_NAME":"STARLINK-2144","GP_ID":"219808307","MEAN_MOTION_DOT":"0.00001695","REF_FRAME":"TEME","LAUNCH_DATE":"2021-03-04","EPHEMERIS_TYPE":"0","NORAD_CAT_ID":"47734","OBJECT_TYPE":"PAYLOAD","EPOCH":"2022-12-08T17:29:30.126624","PERIAPSIS":"546.277","MEAN_ANOMALY":"280.5291","COUNTRY_CODE":"US","SEMIMAJOR_AXIS":"6925.339","INCLINATION":"53.0548","MEAN_ELEMENT_THEORY":"SGP4","RA_OF_ASC_NODE":"140.1031","PERIOD":"95.592","CENTER_NAME":"EARTH"},{"MEAN_MOTION_DOT":"0.00002531","REF_FRAME":"TEME","GP_ID":"219773871","INCLINATION":"53.0576","SEMIMAJOR_AXIS":"6925.338","COUNTRY_CODE":"US","RA_OF_ASC_NODE":"66.0954","PERIOD":"95.592","MEAN_ELEMENT_THEORY":"SGP4","CENTER_NAME":"EARTH","EPHEMERIS_TYPE":"0","LAUNCH_DATE":"2021-03-04","NORAD_CAT_ID":"47735","OBJECT_TYPE":"PAYLOAD","EPOCH":"2022-12-08T13:06:07.302240","PERIAPSIS":"545.748","MEAN_ANOMALY":"284.7596","BSTAR":"0.00018875000000","TLE_LINE2":"2 47735  53.0576  66.0954 0002100  75.3625 284.7596 15.06403557 99842","RCS_SIZE":"LARGE","ARG_OF_PERICENTER":"75.3625","APOAPSIS":"548.657","TIME_SYSTEM":"UTC","REV_AT_EPOCH":"9984","MEAN_MOTION":"15.06403557","DECAY_DATE":null,"CLASSIFICATION_TYPE":"U","TLE_LINE1":"1 47735U 21017P   22342.54591785  .00002531  00000-0  18875-3 0  9997","FILE":"3684614","ECCENTRICITY":"0.00021000","ELEMENT_SET_NO":"999","OBJECT_NAME":"STARLINK-2146","OBJECT_ID":"2021-017P","MEAN_MOTION_DDOT":"0.0000000000000","SITE":"AFETR"},{"CENTER_NAME":"EARTH","COUNTRY_CODE":"US","SEMIMAJOR_AXIS":"6925.119","INCLINATION":"53.0551","MEAN_ELEMENT_THEORY":"SGP4","PERIOD":"95.587","RA_OF_ASC_NODE":"131.4392","MEAN_ANOMALY":"357.9681","PERIAPSIS":"545.811","EPOCH":"2022-12-08T10:20:48.711840","LAUNCH_DATE":"2021-03-04","EPHEMERIS_TYPE":"0","OBJECT_TYPE":"PAYLOAD","NORAD_CAT_ID":"47736","REF_FRAME":"TEME","MEAN_MOTION_DOT":"0.00008989","GP_ID":"219775123","ELEMENT_SET_NO":"999","ECCENTRICITY":"0.00016940","OBJECT_NAME":"STARLINK-2147","FILE":"3684614","SITE":"AFETR","OBJECT_ID":"2021-017Q","MEAN_MOTION_DDOT":"0.0000000000000","APOAPSIS":"548.157","ARG_OF_PERICENTER":"2.1315","TIME_SYSTEM":"UTC","BSTAR":"0.00062037000000","RCS_SIZE":"LARGE","TLE_LINE2":"2 47736  53.0551 131.4392 0001694   2.1315 357.9681 15.06474838 98971","TLE_LINE1":"1 47736U 21017Q   22342.43111935  .00008989  00000-0  62037-3 0  9993","REV_AT_EPOCH":"9897","DECAY_DATE":null,"MEAN_MOTION":"15.06474838","CLASSIFICATION_TYPE":"U"},{"DECAY_DATE":null,"CLASSIFICATION_TYPE":"U","MEAN_MOTION":"15.34406888","REV_AT_EPOCH":"10060","TLE_LINE1":"1 47737U 21017R   22342.49716052  .00007689  00000-0  23841-3 0  9997","TLE_LINE2":"2 47737  53.0560  16.1407 0003190   4.0757 356.0270 15.34406888100601","RCS_SIZE":"LARGE","BSTAR":"0.00023841000000","TIME_SYSTEM":"UTC","ARG_OF_PERICENTER":"4.0757","APOAPSIS":"464.867","MEAN_MOTION_DDOT":"0.0000000000000","OBJECT_ID":"2021-017R","SITE":"AFETR","FILE":"3684614","OBJECT_NAME":"STARLINK-2148","ECCENTRICITY":"0.00031900","ELEMENT_SET_NO":"999","GP_ID":"219775366","MEAN_MOTION_DOT":"0.00007689","REF_FRAME":"TEME","OBJECT_TYPE":"PAYLOAD","NORAD_CAT_ID":"47737","EPHEMERIS_TYPE":"0","LAUNCH_DATE":"2021-03-04","EPOCH":"2022-12-08T11:55:54.668928","PERIAPSIS":"460.503","MEAN_ANOMALY":"356.0270","RA_OF_ASC_NODE":"16.1407","PERIOD":"93.847","MEAN_ELEMENT_THEORY":"SGP4","INCLINATION":"53.0560","COUNTRY_CODE":"US","SEMIMAJOR_AXIS":"6840.820","CENTER_NAME":"EARTH"}];
